{"type":"FeatureCollection","features":[{"type":"Feature","properties":{"cluster_id":1,"cluster_type":"Fixed_IC","voltage_kv":150,"total_score":0.7,"lon":4.584738473616978,"lat":52.48520900068844},"geometry":{"type":"Point","coordinates":[4.584738473616978,52.48520900068844]}},{"type":"Feature","properties":{"cluster_id":2,"cluster_type":"Fixed_IC","voltage_kv":110,"total_score":1.0,"lon":6.984093173880282,"lat":53.313341912598446},"geometry":{"type":"Point","coordinates":[6.984093173880282,53.313341912598446]}},{"type":"Feature","properties":{"cluster_id":3,"cluster_type":"Fixed_IC","voltage_kv":150,"total_score":1.0,"lon":5.795003479039973,"lat":50.97617299222882},"geometry":{"type":"Point","coordinates":[5.795003479039973,50.97617299222882]}},{"type":"Feature","properties":{"cluster_id":4,"cluster_type":"Fixed_IC","voltage_kv":150,"total_score":1.0,"lon":3.7762241060415453,"lat":51.33231649424112},"geometry":{"type":"Point","coordinates":[3.7762241060415453,51.33231649424112]}},{"type":"Feature","properties":{"cluster_id":5,"cluster_type":"Fixed_IC","voltage_kv":380,"total_score":0.7326310903039778,"lon":4.022621802762881,"lat":51.95558990337663},"geometry":{"type":"Point","coordinates":[4.022621802762881,51.95558990337663]}},{"type":"Feature","properties":{"cluster_id":6,"cluster_type":"Municipality","voltage_kv":380,"total_score":0.8581054197924736,"lon":6.949561011754739,"lat":53.12352236612503},"geometry":{"type":"Point","coordinates":[6.949561011754739,53.12352236612503]}},{"type":"Feature","properties":{"cluster_id":7,"cluster_type":"Municipality","voltage_kv":380,"total_score":0.9224828632611123,"lon":5.014814476532444,"lat":52.33667835037084},"geometry":{"type":"Point","coordinates":[5.014814476532444,52.33667835037084]}},{"type":"Feature","properties":{"cluster_id":8,"cluster_type":"Municipality","voltage_kv":380,"total_score":0.6,"lon":5.538857600908463,"lat":52.576548769357444},"geometry":{"type":"Point","coordinates":[5.538857600908463,52.576548769357444]}},{"type":"Feature","properties":{"cluster_id":9,"cluster_type":"Municipality","voltage_kv":220,"total_score":0.6333333204397947,"lon":5.875390697424198,"lat":53.18983342631973},"geometry":{"type":"Point","coordinates":[5.875390697424198,53.18983342631973]}},{"type":"Feature","properties":{"cluster_id":10,"cluster_type":"Municipality","voltage_kv":380,"total_score":0.8367368574722298,"lon":6.190027109098247,"lat":52.52988673825975},"geometry":{"type":"Point","coordinates":[6.190027109098247,52.52988673825975]}},{"type":"Feature","properties":{"cluster_id":11,"cluster_type":"Municipality","voltage_kv":380,"total_score":0.9140313989412577,"lon":6.759171422556857,"lat":52.248857836342985},"geometry":{"type":"Point","coordinates":[6.759171422556857,52.248857836342985]}},{"type":"Feature","properties":{"cluster_id":12,"cluster_type":"Municipality","voltage_kv":380,"total_score":0.999347297574158,"lon":6.25179686618483,"lat":51.981710641322366},"geometry":{"type":"Point","coordinates":[6.25179686618483,51.981710641322366]}},{"type":"Feature","properties":{"cluster_id":13,"cluster_type":"Municipality","voltage_kv":380,"total_score":0.737119010878855,"lon":5.913016023133897,"lat":51.63853979798297},"geometry":{"type":"Point","coordinates":[5.913016023133897,51.63853979798297]}},{"type":"Feature","properties":{"cluster_id":14,"cluster_type":"Municipality","voltage_kv":380,"total_score":1.0,"lon":5.664013853529302,"lat":51.926896543581634},"geometry":{"type":"Point","coordinates":[5.664013853529302,51.926896543581634]}},{"type":"Feature","properties":{"cluster_id":15,"cluster_type":"Municipality","voltage_kv":150,"total_score":0.7,"lon":5.121091814185799,"lat":52.05071653854608},"geometry":{"type":"Point","coordinates":[5.121091814185799,52.05071653854608]}},{"type":"Feature","properties":{"cluster_id":16,"cluster_type":"Municipality","voltage_kv":380,"total_score":0.6,"lon":4.833140482342696,"lat":51.70077292245223},"geometry":{"type":"Point","coordinates":[4.833140482342696,51.70077292245223]}},{"type":"Feature","properties":{"cluster_id":17,"cluster_type":"Municipality","voltage_kv":150,"total_score":1.0,"lon":5.340979712079145,"lat":52.167368525198036},"geometry":{"type":"Point","coordinates":[5.340979712079145,52.167368525198036]}},{"type":"Feature","properties":{"cluster_id":18,"cluster_type":"Municipality","voltage_kv":380,"total_score":0.8082401720083066,"lon":4.630669027784826,"lat":51.914469958331075},"geometry":{"type":"Point","coordinates":[4.630669027784826,51.914469958331075]}},{"type":"Feature","properties":{"cluster_id":19,"cluster_type":"Municipality","voltage_kv":380,"total_score":0.6454526281359797,"lon":4.876179663302943,"lat":52.42896134468519},"geometry":{"type":"Point","coordinates":[4.876179663302943,52.42896134468519]}},{"type":"Feature","properties":{"cluster_id":20,"cluster_type":"Municipality","voltage_kv":380,"total_score":0.6044965644371235,"lon":4.695276158652475,"lat":52.373686967484055},"geometry":{"type":"Point","coordinates":[4.695276158652475,52.373686967484055]}},{"type":"Feature","properties":{"cluster_id":21,"cluster_type":"Municipality","voltage_kv":150,"total_score":1.0,"lon":4.775344825408415,"lat":52.8806697843846},"geometry":{"type":"Point","coordinates":[4.775344825408415,52.8806697843846]}},{"type":"Feature","properties":{"cluster_id":22,"cluster_type":"Municipality","voltage_kv":380,"total_score":0.9873550602429494,"lon":4.747959499736733,"lat":51.813752768832664},"geometry":{"type":"Point","coordinates":[4.747959499736733,51.813752768832664]}},{"type":"Feature","properties":{"cluster_id":23,"cluster_type":"Municipality","voltage_kv":380,"total_score":0.8106265694486886,"lon":4.265950251657264,"lat":51.839349308857784},"geometry":{"type":"Point","coordinates":[4.265950251657264,51.839349308857784]}},{"type":"Feature","properties":{"cluster_id":24,"cluster_type":"Municipality","voltage_kv":380,"total_score":0.7721379951377809,"lon":3.727314149069701,"lat":51.4331757970115},"geometry":{"type":"Point","coordinates":[3.727314149069701,51.4331757970115]}},{"type":"Feature","properties":{"cluster_id":25,"cluster_type":"Municipality","voltage_kv":150,"total_score":0.9,"lon":6.084167450280929,"lat":51.45235123519441},"geometry":{"type":"Point","coordinates":[6.084167450280929,51.45235123519441]}},{"type":"Feature","properties":{"cluster_id":26,"cluster_type":"Municipality","voltage_kv":150,"total_score":0.8668581855774111,"lon":5.084845805715029,"lat":51.59402050887252},"geometry":{"type":"Point","coordinates":[5.084845805715029,51.59402050887252]}},{"type":"Feature","properties":{"cluster_id":27,"cluster_type":"Municipality","voltage_kv":150,"total_score":0.925,"lon":4.485066533532463,"lat":51.54682856735627},"geometry":{"type":"Point","coordinates":[4.485066533532463,51.54682856735627]}},{"type":"Feature","properties":{"cluster_id":28,"cluster_type":"Municipality","voltage_kv":380,"total_score":0.9964697004389353,"lon":5.532527120951029,"lat":51.446816056780314},"geometry":{"type":"Point","coordinates":[5.532527120951029,51.446816056780314]}},{"type":"Feature","properties":{"cluster_id":29,"cluster_type":"Municipality","voltage_kv":150,"total_score":0.775,"lon":5.8855691053999575,"lat":50.854417624445986},"geometry":{"type":"Point","coordinates":[5.8855691053999575,50.854417624445986]}},{"type":"Feature","properties":{"cluster_id":30,"cluster_type":"Municipality","voltage_kv":380,"total_score":0.9721521763648482,"lon":5.918515142780195,"lat":51.14843490808233},"geometry":{"type":"Point","coordinates":[5.918515142780195,51.14843490808233]}}]}