{"type":"FeatureCollection","features":[{"type":"Feature","properties":{"cluster_id":1,"cluster_type":"Fixed_IC","voltage_kv":150,"total_score":0.7,"lon":4.584738473616978,"lat":52.48520900068844},"geometry":{"type":"Point","coordinates":[4.584738473616978,52.48520900068844]}},{"type":"Feature","properties":{"cluster_id":2,"cluster_type":"Fixed_IC","voltage_kv":110,"total_score":1.0,"lon":6.984093173880282,"lat":53.313341912598446},"geometry":{"type":"Point","coordinates":[6.984093173880282,53.313341912598446]}},{"type":"Feature","properties":{"cluster_id":3,"cluster_type":"Fixed_IC","voltage_kv":150,"total_score":1.0,"lon":5.795003479039973,"lat":50.97617299222882},"geometry":{"type":"Point","coordinates":[5.795003479039973,50.97617299222882]}},{"type":"Feature","properties":{"cluster_id":4,"cluster_type":"Fixed_IC","voltage_kv":150,"total_score":1.0,"lon":3.7762241060415453,"lat":51.33231649424112},"geometry":{"type":"Point","coordinates":[3.7762241060415453,51.33231649424112]}},{"type":"Feature","properties":{"cluster_id":5,"cluster_type":"Fixed_IC","voltage_kv":380,"total_score":0.7326310903039778,"lon":4.022621802762881,"lat":51.95558990337663},"geometry":{"type":"Point","coordinates":[4.022621802762881,51.95558990337663]}},{"type":"Feature","properties":{"cluster_id":6,"cluster_type":"Municipality","voltage_kv":380,"total_score":0.6745501465308772,"lon":6.475234206314373,"lat":53.21358225867986},"geometry":{"type":"Point","coordinates":[6.475234206314373,53.21358225867986]}},{"type":"Feature","properties":{"cluster_id":7,"cluster_type":"Municipality","voltage_kv":380,"total_score":0.7445157055573843,"lon":5.808616438430801,"lat":52.61680628353029},"geometry":{"type":"Point","coordinates":[5.808616438430801,52.61680628353029]}},{"type":"Feature","properties":{"cluster_id":8,"cluster_type":"Municipality","voltage_kv":380,"total_score":0.8118870242945145,"lon":6.25179686618483,"lat":51.981710641322366},"geometry":{"type":"Point","coordinates":[6.25179686618483,51.981710641322366]}},{"type":"Feature","properties":{"cluster_id":9,"cluster_type":"Municipality","voltage_kv":380,"total_score":0.7886656730602171,"lon":5.664013853529302,"lat":51.926896543581634},"geometry":{"type":"Point","coordinates":[5.664013853529302,51.926896543581634]}},{"type":"Feature","properties":{"cluster_id":10,"cluster_type":"Municipality","voltage_kv":380,"total_score":0.9069935094017472,"lon":4.630669027784826,"lat":51.914469958331075},"geometry":{"type":"Point","coordinates":[4.630669027784826,51.914469958331075]}},{"type":"Feature","properties":{"cluster_id":11,"cluster_type":"Municipality","voltage_kv":380,"total_score":0.7029474348536902,"lon":4.876179663302943,"lat":52.42896134468519},"geometry":{"type":"Point","coordinates":[4.876179663302943,52.42896134468519]}},{"type":"Feature","properties":{"cluster_id":12,"cluster_type":"Municipality","voltage_kv":380,"total_score":0.8507665194906715,"lon":4.306872853559252,"lat":52.01571882109409},"geometry":{"type":"Point","coordinates":[4.306872853559252,52.01571882109409]}},{"type":"Feature","properties":{"cluster_id":13,"cluster_type":"Municipality","voltage_kv":380,"total_score":0.9299107932672143,"lon":4.2187182748458465,"lat":51.42385993326517},"geometry":{"type":"Point","coordinates":[4.2187182748458465,51.42385993326517]}},{"type":"Feature","properties":{"cluster_id":14,"cluster_type":"Municipality","voltage_kv":380,"total_score":0.8954950793119711,"lon":5.532527120951029,"lat":51.446816056780314},"geometry":{"type":"Point","coordinates":[5.532527120951029,51.446816056780314]}},{"type":"Feature","properties":{"cluster_id":15,"cluster_type":"Municipality","voltage_kv":150,"total_score":0.7988778352324127,"lon":5.966594144636692,"lat":50.901430556401294},"geometry":{"type":"Point","coordinates":[5.966594144636692,50.901430556401294]}}]}