{"type":"FeatureCollection","features":[{"type":"Feature","properties":{"id":"UK","name":"United Kingdom"},"geometry":{"type":"LineString","coordinates":[[1.45,51.05],[1.18,51.55],[0.78,52.1],[0.55,52.82],[0.78,53.42],[1.26,54.02],[1.02,54.65],[0.38,55.15]]}},{"type":"Feature","properties":{"id":"BE","name":"Belgium"},"geometry":{"type":"LineString","coordinates":[[2.55,51.08],[3.12,50.78],[3.76,50.72],[4.36,50.78],[4.98,50.86],[5.72,50.76],[6.22,50.92]]}},{"type":"Feature","properties":{"id":"DE","name":"Germany"},"geometry":{"type":"LineString","coordinates":[[6.05,53.66],[6.72,53.42],[7.32,53.05],[7.18,52.48],[7.68,52.05],[7.32,51.55],[6.76,51.18],[6.08,50.9]]}},{"type":"Feature","properties":{"id":"DK","name":"Denmark"},"geometry":{"type":"LineString","coordinates":[[7.2,54.85],[7.82,55.08],[8.48,55.45],[9.08,55.18],[9.55,54.88]]}},{"type":"Feature","properties":{"id":"NO","name":"Norway"},"geometry":{"type":"LineString","coordinates":[[4.88,55.1],[5.38,55.45],[5.92,55.72],[6.48,55.9],[7.1,55.86]]}}]}