{"type":"FeatureCollection","features":[{"type":"Feature","properties":{"id":"NS5","Name":"Zeeland","Latitude":51.72695,"Longitude":2.965921},"geometry":{"type":"Point","coordinates":[3.296460351070782,51.69940211998167]}},{"type":"Feature","properties":{"id":"NS4","Name":"Zuid-Holland","Latitude":52.58955,"Longitude":3.559076},"geometry":{"type":"Point","coordinates":[3.6796101862913635,52.43491644208927]}},{"type":"Feature","properties":{"id":"NS3","Name":"Hub West","Latitude":53.579,"Longitude":3.766879},"geometry":{"type":"Point","coordinates":[4.286481433335338,53.27606244731742]}},{"type":"Feature","properties":{"id":"NS2","Name":"Hub North","Latitude":54.44538,"Longitude":4.251715},"geometry":{"type":"Point","coordinates":[4.827382761171801,53.677790311610515]}},{"type":"Feature","properties":{"id":"NS1","Name":"Hub East","Latitude":54.03581,"Longitude":5.463475},"geometry":{"type":"Point","coordinates":[5.619858178637284,53.759304292329155]}},{"type":"Feature","properties":{"id":"NO","Name":"Norway","Latitude":null,"Longitude":null},"geometry":{"type":"Point","coordinates":[6.55,54.45]}},{"type":"Feature","properties":{"id":"DK","Name":"Denmark","Latitude":null,"Longitude":null},"geometry":{"type":"Point","coordinates":[7.65,53.95]}},{"type":"Feature","properties":{"id":"DE","Name":"Germany","Latitude":null,"Longitude":null},"geometry":{"type":"Point","coordinates":[7.85,51.65]}},{"type":"Feature","properties":{"id":"BE","Name":"Belgium","Latitude":null,"Longitude":null},"geometry":{"type":"Point","coordinates":[4.15,50.75]}},{"type":"Feature","properties":{"id":"UK","Name":"United Kingdom","Latitude":null,"Longitude":null},"geometry":{"type":"Point","coordinates":[2.25,52.15]}}]}